{
    "links": {
        "self": "http://www.neowsapp.com/rest/v1/neo/54017052?api_key=iIulBulltgU6a56xZRHN4H3l9WmuAYTsLGpBGhQ2"
    },
    "id": "54017052",
    "neo_reference_id": "54017052",
    "name": "(2020 KB)",
    "designation": "2020 KB",
    "nasa_jpl_url": "http://ssd.jpl.nasa.gov/sbdb.cgi?sstr=54017052",
    "absolute_magnitude_h": 24.846,
    "estimated_diameter": {
        "kilometers": {
            "estimated_diameter_min": 0.0285334954,
            "estimated_diameter_max": 0.0638028353
        },
        "meters": {
            "estimated_diameter_min": 28.5334953937,
            "estimated_diameter_max": 63.802835336
        },
        "miles": {
            "estimated_diameter_min": 0.0177298866,
            "estimated_diameter_max": 0.0396452316
        },
        "feet": {
            "estimated_diameter_min": 93.6138330275,
            "estimated_diameter_max": 209.3268942838
        }
    },
    "is_potentially_hazardous_asteroid": false,
    "close_approach_data": [
        {
            "close_approach_date": "2020-05-29",
            "close_approach_date_full": "2020-May-29 00:41",
            "epoch_date_close_approach": 1590712860000,
            "relative_velocity": {
                "kilometers_per_second": "12.2110371829",
                "kilometers_per_hour": "43959.7338583597",
                "miles_per_hour": "27314.8690743791"
            },
            "miss_distance": {
                "astronomical": "0.019295872",
                "lunar": "7.506094208",
                "kilometers": "2886621.35099264",
                "miles": "1793663.334232832"
            },
            "orbiting_body": "Earth"
        },
        {
            "close_approach_date": "2025-12-08",
            "close_approach_date_full": "2025-Dec-08 11:23",
            "epoch_date_close_approach": 1765192980000,
            "relative_velocity": {
                "kilometers_per_second": "3.83772591",
                "kilometers_per_hour": "13815.8132761679",
                "miles_per_hour": "8584.6090881834"
            },
            "miss_distance": {
                "astronomical": "1.4380058504",
                "lunar": "559.3842758056",
                "kilometers": "215122612.267378648",
                "miles": "133670992.8566474224"
            },
            "orbiting_body": "Juptr"
        }
    ],
    "orbital_data": {
        "orbit_id": "10",
        "orbit_determination_date": "2020-06-02 06:15:17",
        "first_observation_date": "2020-05-13",
        "last_observation_date": "2020-05-28",
        "data_arc_in_days": 15,
        "observations_used": 60,
        "orbit_uncertainty": "7",
        "minimum_orbit_intersection": ".0178365",
        "jupiter_tisserand_invariant": "3.236",
        "epoch_osculation": "2459000.5",
        "eccentricity": ".6113466661376674",
        "semi_major_axis": "2.396667024913077",
        "inclination": "7.525975059624047",
        "ascending_node_longitude": "59.93639842029686",
        "orbital_period": "1355.220547637872",
        "perihelion_distance": ".9314726293903853",
        "perihelion_argument": "226.6900947806216",
        "aphelion_distance": "3.861861420435768",
        "perihelion_time": "2459028.359704815374",
        "mean_anomaly": "352.5993641765423",
        "mean_motion": ".2656394198180321",
        "equinox": "J2000",
        "orbit_class": {
            "orbit_class_type": "APO",
            "orbit_class_description": "Near-Earth asteroid orbits which cross the Earth’s orbit similar to that of 1862 Apollo",
            "orbit_class_range": "a (semi-major axis) > 1.0 AU; q (perihelion) < 1.017 AU"
        }
    },
    "is_sentry_object": false
}